RAY 1.0                 
1 62627U 25009U   26068.84026028  .00005065  00000+0  23775-3 0  9993
2 62627  97.4036 148.9866 0007290 261.8547  98.1862 15.20062713 63580
FOSSASAT-2E18 (TAT-A)   
1 62686U 25009CF  26068.70955439  .00004172  00000+0  19425-3 0  9995
2 62686  97.4018 148.8446 0005191 339.5047  20.5980 15.20457243 63579
